[{"OBJECT_NAME":"YAOGAN-40 02C","OBJECT_ID":"2025-096C","EPOCH":"2026-03-09T23:00:48.049344","MEAN_MOTION":14.12429028,"ECCENTRICITY":0.00019858,"INCLINATION":85.9918,"RA_OF_ASC_NODE":231.6606,"ARG_OF_PERICENTER":86.0596,"MEAN_ANOMALY":274.0814,"EPHEMERIS_TYPE":0,"CLASSIFICATION_TYPE":"U","NORAD_CAT_ID":63920,"ELEMENT_SET_NO":999,"REV_AT_EPOCH":6140,"BSTAR":0.00013239908,"MEAN_MOTION_DOT":2.63e-6,"MEAN_MOTION_DDOT":0},{"OBJECT_NAME":"NOAA 16 DEB","OBJECT_ID":"2000-055QS","EPOCH":"2026-02-24T04:43:33.629664","MEAN_MOTION":14.10373742,"ECCENTRICITY":0.00244524,"INCLINATION":98.6411,"RA_OF_ASC_NODE":44.603,"ARG_OF_PERICENTER":187.9231,"MEAN_ANOMALY":172.1557,"EPHEMERIS_TYPE":0,"CLASSIFICATION_TYPE":"U","NORAD_CAT_ID":42350,"ELEMENT_SET_NO":999,"REV_AT_EPOCH":48033,"BSTAR":0.00048744631,"MEAN_MOTION_DOT":8.26e-6,"MEAN_MOTION_DDOT":0}]
